[{"OBJECT_NAME":"GPS BIIR-08","OBJECT_ID":"2003-005A","EPOCH":"2026-03-05T09:57:48.106368","MEAN_MOTION":2.00566237,"ECCENTRICITY":0.0148737,"INCLINATION":54.9071,"RA_OF_ASC_NODE":219.0894,"ARG_OF_PERICENTER":52.7243,"MEAN_ANOMALY":318.2187,"EPHEMERIS_TYPE":0,"CLASSIFICATION_TYPE":"U","NORAD_CAT_ID":27663,"ELEMENT_SET_NO":999,"REV_AT_EPOCH":16923,"BSTAR":0,"MEAN_MOTION_DOT":9.0e-8,"MEAN_MOTION_DDOT":0},{"OBJECT_NAME":"GPS BIIR-11","OBJECT_ID":"2004-009A","EPOCH":"2026-03-05T22:23:44.700000","MEAN_MOTION":2.00558087,"ECCENTRICITY":0.01110255,"INCLINATION":54.9146,"RA_OF_ASC_NODE":279.8578,"ARG_OF_PERICENTER":169.1048,"MEAN_ANOMALY":11.7386,"EPHEMERIS_TYPE":0,"CLASSIFICATION_TYPE":"U","NORAD_CAT_ID":28190,"ELEMENT_SET_NO":999,"REV_AT_EPOCH":16087,"BSTAR":0,"MEAN_MOTION_DOT":-2.3e-7,"MEAN_MOTION_DDOT":0},{"OBJECT_NAME":"GPS BIIR-13","OBJECT_ID":"2004-045A","EPOCH":"2026-03-06T02:30:39.424608","MEAN_MOTION":2.00573534,"ECCENTRICITY":0.0170825,"INCLINATION":55.1937,"RA_OF_ASC_NODE":329.0507,"ARG_OF_PERICENTER":312.8962,"MEAN_ANOMALY":55.2493,"EPHEMERIS_TYPE":0,"CLASSIFICATION_TYPE":"U","NORAD_CAT_ID":28474,"ELEMENT_SET_NO":999,"REV_AT_EPOCH":15636,"BSTAR":0,"MEAN_MOTION_DOT":-9.5e-7,"MEAN_MOTION_DDOT":0},{"OBJECT_NAME":"GPS BIIR-14M","OBJECT_ID":"2005-038A","EPOCH":"2026-03-05T15:49:50.067264","MEAN_MOTION":2.00572953,"ECCENTRICITY":0.0128771,"INCLINATION":54.962,"RA_OF_ASC_NODE":277.3543,"ARG_OF_PERICENTER":295.3628,"MEAN_ANOMALY":71.8248,"EPHEMERIS_TYPE":0,"CLASSIFICATION_TYPE":"U","NORAD_CAT_ID":28874,"ELEMENT_SET_NO":999,"REV_AT_EPOCH":14976,"BSTAR":0,"MEAN_MOTION_DOT":-2.0e-7,"MEAN_MOTION_DDOT":0},{"OBJECT_NAME":"METEOSAT-9 (MSG-2)","OBJECT_ID":"2005-049B","EPOCH":"2026-03-06T01:36:38.729088","MEAN_MOTION":1.00278249,"ECCENTRICITY":0.00016369,"INCLINATION":9.1287,"RA_OF_ASC_NODE":55.1656,"ARG_OF_PERICENTER":223.7323,"MEAN_ANOMALY":314.8216,"EPHEMERIS_TYPE":0,"CLASSIFICATION_TYPE":"U","NORAD_CAT_ID":28912,"ELEMENT_SET_NO":999,"REV_AT_EPOCH":596,"BSTAR":0,"MEAN_MOTION_DOT":1.21e-6,"MEAN_MOTION_DDOT":0},{"OBJECT_NAME":"GPS BIIR-16M","OBJECT_ID":"2006-052A","EPOCH":"2026-03-05T17:01:51.031488","MEAN_MOTION":2.00551752,"ECCENTRICITY":0.00878481,"INCLINATION":54.9567,"RA_OF_ASC_NODE":218.1055,"ARG_OF_PERICENTER":89.3817,"MEAN_ANOMALY":271.5768,"EPHEMERIS_TYPE":0,"CLASSIFICATION_TYPE":"U","NORAD_CAT_ID":29601,"ELEMENT_SET_NO":999,"REV_AT_EPOCH":14133,"BSTAR":0,"MEAN_MOTION_DOT":1.3e-7,"MEAN_MOTION_DDOT":0},{"OBJECT_NAME":"GPS BIIR-17M","OBJECT_ID":"2007-047A","EPOCH":"2026-03-06T00:23:33.368352","MEAN_MOTION":2.00560687,"ECCENTRICITY":0.01636139,"INCLINATION":54.017,"RA_OF_ASC_NODE":84.3168,"ARG_OF_PERICENTER":85.9747,"MEAN_ANOMALY":275.9459,"EPHEMERIS_TYPE":0,"CLASSIFICATION_TYPE":"U","NORAD_CAT_ID":32260,"ELEMENT_SET_NO":999,"REV_AT_EPOCH":13474,"BSTAR":0,"MEAN_MOTION_DOT":-1.5e-7,"MEAN_MOTION_DDOT":0},{"OBJECT_NAME":"GPS BIIR-18M","OBJECT_ID":"2007-062A","EPOCH":"2026-03-06T01:54:28.774080","MEAN_MOTION":2.00553677,"ECCENTRICITY":0.00329705,"INCLINATION":55.1135,"RA_OF_ASC_NODE":278.2961,"ARG_OF_PERICENTER":160.6738,"MEAN_ANOMALY":12.9295,"EPHEMERIS_TYPE":0,"CLASSIFICATION_TYPE":"U","NORAD_CAT_ID":32384,"ELEMENT_SET_NO":999,"REV_AT_EPOCH":13344,"BSTAR":0,"MEAN_MOTION_DOT":-2.0e-7,"MEAN_MOTION_DDOT":0},{"OBJECT_NAME":"GOES 14","OBJECT_ID":"2009-033A","EPOCH":"2026-03-06T03:58:38.609760","MEAN_MOTION":1.00100143,"ECCENTRICITY":0.00017804,"INCLINATION":1.4238,"RA_OF_ASC_NODE":84.3957,"ARG_OF_PERICENTER":255.5978,"MEAN_ANOMALY":84.324,"EPHEMERIS_TYPE":0,"CLASSIFICATION_TYPE":"U","NORAD_CAT_ID":35491,"ELEMENT_SET_NO":999,"REV_AT_EPOCH":555,"BSTAR":0,"MEAN_MOTION_DOT":1.2e-6,"MEAN_MOTION_DDOT":0},{"OBJECT_NAME":"GOES 15","OBJECT_ID":"2010-008A","EPOCH":"2026-03-06T03:59:25.003968","MEAN_MOTION":1.00269713,"ECCENTRICITY":0.00020058,"INCLINATION":1.0131,"RA_OF_ASC_NODE":85.1126,"ARG_OF_PERICENTER":18.4418,"MEAN_ANOMALY":183.6554,"EPHEMERIS_TYPE":0,"CLASSIFICATION_TYPE":"U","NORAD_CAT_ID":36411,"ELEMENT_SET_NO":999,"REV_AT_EPOCH":5860,"BSTAR":0,"MEAN_MOTION_DOT":1.6e-7,"MEAN_MOTION_DDOT":0},{"OBJECT_NAME":"GSAT0101 (GALILEO-PFM)","OBJECT_ID":"2011-060A","EPOCH":"2026-02-22T11:08:37.810464","MEAN_MOTION":1.70475478,"ECCENTRICITY":0.00039756,"INCLINATION":57.0318,"RA_OF_ASC_NODE":344.8758,"ARG_OF_PERICENTER":357.0591,"MEAN_ANOMALY":2.9533,"EPHEMERIS_TYPE":0,"CLASSIFICATION_TYPE":"U","NORAD_CAT_ID":37846,"ELEMENT_SET_NO":999,"REV_AT_EPOCH":8916,"BSTAR":0,"MEAN_MOTION_DOT":-8.2e-7,"MEAN_MOTION_DDOT":0},{"OBJECT_NAME":"GSAT0102 (GALILEO-FM2)","OBJECT_ID":"2011-060B","EPOCH":"2026-03-01T01:30:59.316192","MEAN_MOTION":1.70475778,"ECCENTRICITY":0.00054225,"INCLINATION":57.0301,"RA_OF_ASC_NODE":344.6971,"ARG_OF_PERICENTER":341.2092,"MEAN_ANOMALY":154.1953,"EPHEMERIS_TYPE":0,"CLASSIFICATION_TYPE":"U","NORAD_CAT_ID":37847,"ELEMENT_SET_NO":999,"REV_AT_EPOCH":8928,"BSTAR":0,"MEAN_MOTION_DOT":-1.06e-6,"MEAN_MOTION_DDOT":0},{"OBJECT_NAME":"LUCH 5A","OBJECT_ID":"2011-074B","EPOCH":"2026-03-06T06:11:42.318816","MEAN_MOTION":1.00275932,"ECCENTRICITY":0.00038907,"INCLINATION":8.4918,"RA_OF_ASC_NODE":75.3187,"ARG_OF_PERICENTER":247.7042,"MEAN_ANOMALY":101.0013,"EPHEMERIS_TYPE":0,"CLASSIFICATION_TYPE":"U","NORAD_CAT_ID":37951,"ELEMENT_SET_NO":999,"REV_AT_EPOCH":5201,"BSTAR":0,"MEAN_MOTION_DOT":-5.0e-7,"MEAN_MOTION_DDOT":0},{"OBJECT_NAME":"METEOSAT-10 (MSG-3)","OBJECT_ID":"2012-035B","EPOCH":"2026-03-06T05:24:01.890432","MEAN_MOTION":1.00267763,"ECCENTRICITY":0.00024941,"INCLINATION":4.428,"RA_OF_ASC_NODE":61.4557,"ARG_OF_PERICENTER":282.3505,"MEAN_ANOMALY":261.3987,"EPHEMERIS_TYPE":0,"CLASSIFICATION_TYPE":"U","NORAD_CAT_ID":38552,"ELEMENT_SET_NO":999,"REV_AT_EPOCH":4982,"BSTAR":0,"MEAN_MOTION_DOT":-1.0e-7,"MEAN_MOTION_DDOT":0},{"OBJECT_NAME":"SARSAT 13 (METOP-B)","OBJECT_ID":"2012-049A","EPOCH":"2026-03-06T06:39:30.474720","MEAN_MOTION":14.21443484,"ECCENTRICITY":0.00011891,"INCLINATION":98.6649,"RA_OF_ASC_NODE":118.7664,"ARG_OF_PERICENTER":284.6654,"MEAN_ANOMALY":75.4392,"EPHEMERIS_TYPE":0,"CLASSIFICATION_TYPE":"U","NORAD_CAT_ID":38771,"ELEMENT_SET_NO":999,"REV_AT_EPOCH":69864,"BSTAR":9.8863261e-5,"MEAN_MOTION_DOT":1.73e-6,"MEAN_MOTION_DDOT":0},{"OBJECT_NAME":"GPS BIIF-3","OBJECT_ID":"2012-053A","EPOCH":"2026-03-05T02:46:21.230400","MEAN_MOTION":2.00565848,"ECCENTRICITY":0.0176939,"INCLINATION":53.5659,"RA_OF_ASC_NODE":147.8643,"ARG_OF_PERICENTER":64.7787,"MEAN_ANOMALY":297.0919,"EPHEMERIS_TYPE":0,"CLASSIFICATION_TYPE":"U","NORAD_CAT_ID":38833,"ELEMENT_SET_NO":999,"REV_AT_EPOCH":9735,"BSTAR":0,"MEAN_MOTION_DOT":9.0e-8,"MEAN_MOTION_DDOT":0},{"OBJECT_NAME":"GSAT0103 (GALILEO-FM3)","OBJECT_ID":"2012-055A","EPOCH":"2026-03-05T15:35:51.460224","MEAN_MOTION":1.70473457,"ECCENTRICITY":0.00054255,"INCLINATION":55.7393,"RA_OF_ASC_NODE":104.3859,"ARG_OF_PERICENTER":285.5287,"MEAN_ANOMALY":74.4915,"EPHEMERIS_TYPE":0,"CLASSIFICATION_TYPE":"U","NORAD_CAT_ID":38857,"ELEMENT_SET_NO":999,"REV_AT_EPOCH":8325,"BSTAR":0,"MEAN_MOTION_DOT":9.0e-8,"MEAN_MOTION_DDOT":0}]
